COSMOS 2433 (720)       
1 32275U 07052A   22139.72717976 -.00000064  00000+0  00000+0 0  9995
2 32275  66.0822   5.6226 0000925 294.4648 248.4623  2.13104133113359
COSMOS 2432 (719)       
1 32276U 07052B   22139.84565532 -.00000064  00000+0  00000+0 0  9998
2 32276  66.0951   5.7226 0010360 340.8915 241.3339  2.13103494113356
COSMOS 2434 (721)       
1 32393U 07065A   22139.68196076  .00000013  00000+0  00000+0 0  9990
2 32393  64.3890 242.4071 0003126  89.5411 308.1620  2.13103247112065
COSMOS 2436 (723)       
1 32395U 07065C   22139.92141977  .00000010  00000+0  00000+0 0  9996
2 32395  64.3983 242.4551 0015159   2.7713 354.5348  2.13103063111993
COSMOS 2456 (730)       
1 36111U 09070A   22139.73000774  .00000060  00000+0  00000+0 0  9997
2 36111  64.3465 122.0403 0006299 303.3607 297.1688  2.13099332 96729
COSMOS 2457 (733)       
1 36112U 09070B   22140.14442644  .00000062  00000+0  00000+0 0  9993
2 36112  64.3295 121.9026 0004164 200.8798 124.6408  2.13101514 96732
COSMOS 2461 (735)       
1 36401U 10007B   22139.83656912 -.00000064  00000+0  00000+0 0  9998
2 36401  65.9688   4.4621 0021770  10.5998 113.7115  2.13103894 95086
COSMOS 2460 (732)       
1 36402U 10007C   22139.90267103 -.00000064  00000+0  00000+0 0  9997
2 36402  65.9556   4.4104 0002527  47.6896  75.4766  2.13106489 95083
COSMOS 2464 (736)       
1 37139U 10041C   22139.35103475  .00000017  00000+0  00000+0 0  9990
2 37139  63.9892 241.5082 0028742  11.7376 350.5333  2.13100871 91131
COSMOS 2476 (744)       
1 37867U 11064A   22138.92023874  .00000059  00000+0  00000+0 0  9996
2 37867  64.6356 123.4134 0023131 241.8261   2.7486  2.13101943 82051
COSMOS 2477 (745)       
1 37868U 11064B   22137.77339785  .00000060  00000+0  00000+0 0  9992
2 37868  64.6433 123.5168 0020485 243.2154  19.6672  2.13101753 81986
COSMOS 2475 (743)       
1 37869U 11064C   22140.01017642  .00000063  00000+0  00000+0 0  9992
2 37869  64.6515 123.4483 0025294 258.8246 238.0140  2.13102035 82043
COSMOS 2485 (747)       
1 39155U 13019A   22139.79910407  .00000062  00000+0  00000+0 0  9997
2 39155  64.8002 123.8052 0023505 237.7489   5.4496  2.13102011 70546
COSMOS 2492 (754)       
1 39620U 14012A   22138.95270086 -.00000059  00000+0  00000+0 0  9994
2 39620  65.8409   4.1268 0013077 333.5122  14.8675  2.13103274 63476
COSMOS 2500 (755)       
1 40001U 14032A   22139.77434278 -.00000064  00000+0  00000+0 0  9993
2 40001  65.7840   3.9631 0004312 189.2301 288.2301  2.13102536 61715
COSMOS 2501 (702K)      
1 40315U 14075A   22139.94220637  .00000009  00000+0  00000+0 0  9997
2 40315  63.6966 242.1669 0017753 207.5945 206.4873  2.13101599 58123
COSMOS 2514 (751)       
1 41330U 16008A   22139.85096485 -.00000064  00000+0  00000+0 0  9997
2 41330  65.5817   3.6590 0007938 204.1803 155.8344  2.13102714 48882
COSMOS 2516 (753)       
1 41554U 16032A   22138.90973041  .00000020  00000+0  00000+0 0  9990
2 41554  63.9226 242.4715 0014049 214.0563  45.9961  2.13106367 46466
COSMOS 2522 (752)       
1 42939U 17055A   22139.73079058  .00000012  00000+0  00000+0 0  9992
2 42939  64.1550 242.8294 0007195 239.1118 148.1376  2.13102000 36242
COSMOS 2527 (756)       
1 43508U 18053A   22139.92403200  .00000063  00000+0  00000+0 0  9991
2 43508  64.9626 123.7947 0009784 243.7619 323.8480  2.13102603 30535
COSMOS 2529 (757)       
1 43687U 18086A   22139.28336280  .00000017  00000+0  00000+0 0  9996
2 43687  64.3704 243.1535 0009008 264.9049  94.6110  2.13102166 27538
COSMOS 2534 (758)       
1 44299U 19030A   22139.62753373  .00000014  00000+0  00000+0 0  9997
2 44299  64.4436 243.0232 0011556 288.0469 110.0993  2.13102103 23199
COSMOS 2544 (759)       
1 44850U 19088A   22140.20833010  .00000065  00000+0  00000+0 0  9992
2 44850  64.9490 123.6387 0014707 264.1237 205.0803  2.13102369 18979
COSMOS 2545 (760)       
1 45358U 20018A   22139.78075001 -.00000066  00000+0  00000+0 0  9992
2 45358  64.9184   4.2931 0006925 255.4632  95.2286  2.13102775 16914
COSMOS 2547 (705K)      
1 46805U 20075A   22139.56060868  .00000015  00000+0  00000+0 0  9997
2 46805  64.6674 242.4417 0006561 243.3823 151.0107  2.13103274 12163
